{
  "type": "FeatureCollection",
  "features": [
    {
      "type": "Feature",
      "properties": {
        "norad_id": 66474,
        "name": "STARLINK-35620",
        "group": "last-30-days",
        "lat": -6.894983357094958,
        "lon": -60.994107003682565,
        "alt_km": 417.18663284723334,
        "timestamp": "2025-12-05T19:30:24.350071+00:00",
        "meta_object_name": "STARLINK-35620",
        "meta_object_id": "2025-262U",
        "meta_epoch": "2025-12-05T06:00:02.000160",
        "meta_mean_motion": 15.51209315,
        "meta_eccentricity": 9.126e-05,
        "meta_inclination": 42.9999,
        "meta_ra_of_asc_node": 114.8424,
        "meta_arg_of_pericenter": 279.2354,
        "meta_mean_anomaly": 5.5834,
        "meta_ephemeris_type": 0,
        "meta_classification_type": "U",
        "meta_norad_cat_id": 66474,
        "meta_element_set_no": 999,
        "meta_rev_at_epoch": 443,
        "meta_bstar": -0.017189328,
        "meta_mean_motion_dot": -0.00946279,
        "meta_mean_motion_ddot": 0,
        "tle_line1": "1 66474U 25262U   25339.25002315 -.00946279  00000+0 -17189-1 0  9999",
        "tle_line2": "2 66474  42.9999 114.8424 0000912 279.2354   5.5834 15.51209315  4437"
      },
      "geometry": {
        "type": "Point",
        "coordinates": [
          -60.994107003682565,
          -6.894983357094958
        ]
      }
    },
    {
      "type": "Feature",
      "properties": {
        "norad_id": 66475,
        "name": "STARLINK-35538",
        "group": "last-30-days",
        "lat": -8.203970736767694,
        "lon": -59.5538527695436,
        "alt_km": 417.0966415178873,
        "timestamp": "2025-12-05T19:30:24.350083+00:00",
        "meta_object_name": "STARLINK-35538",
        "meta_object_id": "2025-262V",
        "meta_epoch": "2025-12-05T06:00:02.000160",
        "meta_mean_motion": 15.51199881,
        "meta_eccentricity": 0.00010825,
        "meta_inclination": 42.9998,
        "meta_ra_of_asc_node": 114.8385,
        "meta_arg_of_pericenter": 267.4486,
        "meta_mean_anomaly": 19.2877,
        "meta_ephemeris_type": 0,
        "meta_classification_type": "U",
        "meta_norad_cat_id": 66475,
        "meta_element_set_no": 999,
        "meta_rev_at_epoch": 443,
        "meta_bstar": -0.016542675,
        "meta_mean_motion_dot": -0.00913209,
        "meta_mean_motion_ddot": 0,
        "tle_line1": "1 66475U 25262V   25339.25002315 -.00913209  00000+0 -16543-1 0  9990",
        "tle_line2": "2 66475  42.9998 114.8385 0001082 267.4486  19.2877 15.51199881  4432"
      },
      "geometry": {
        "type": "Point",
        "coordinates": [
          -59.5538527695436,
          -8.203970736767694
        ]
      }
    },
    {
      "type": "Feature",
      "properties": {
        "norad_id": 66476,
        "name": "STARLINK-35372",
        "group": "last-30-days",
        "lat": -9.494281126371801,
        "lon": -58.12059365735969,
        "alt_km": 417.1389409425028,
        "timestamp": "2025-12-05T19:30:24.350093+00:00",
        "meta_object_name": "STARLINK-35372",
        "meta_object_id": "2025-262W",
        "meta_epoch": "2025-12-05T06:00:02.000160",
        "meta_mean_motion": 15.51175162,
        "meta_eccentricity": 0.00010124,
        "meta_inclination": 42.9998,
        "meta_ra_of_asc_node": 114.8331,
        "meta_arg_of_pericenter": 260.4262,
        "meta_mean_anomaly": 28.2614,
        "meta_ephemeris_type": 0,
        "meta_classification_type": "U",
        "meta_norad_cat_id": 66476,
        "meta_element_set_no": 999,
        "meta_rev_at_epoch": 432,
        "meta_bstar": -0.016293116,
        "meta_mean_motion_dot": -0.00887691,
        "meta_mean_motion_ddot": 0,
        "tle_line1": "1 66476U 25262W   25339.25002315 -.00887691  00000+0 -16293-1 0  9998",
        "tle_line2": "2 66476  42.9998 114.8331 0001012 260.4262  28.2614 15.51175162  4325"
      },
      "geometry": {
        "type": "Point",
        "coordinates": [
          -58.12059365735969,
          -9.494281126371801
        ]
      }
    },
    {
      "type": "Feature",
      "properties": {
        "norad_id": 66477,
        "name": "STARLINK-35354",
        "group": "last-30-days",
        "lat": -12.032837273182249,
        "lon": -55.246383298301225,
        "alt_km": 417.54210546463946,
        "timestamp": "2025-12-05T19:30:24.350105+00:00",
        "meta_object_name": "STARLINK-35354",
        "meta_object_id": "2025-262X",
        "meta_epoch": "2025-12-05T06:00:02.000160",
        "meta_mean_motion": 15.51203458,
        "meta_eccentricity": 9.194e-05,
        "meta_inclination": 42.9999,
        "meta_ra_of_asc_node": 114.8231,
        "meta_arg_of_pericenter": 268.4942,
        "meta_mean_anomaly": 23.9962,
        "meta_ephemeris_type": 0,
        "meta_classification_type": "U",
        "meta_norad_cat_id": 66477,
        "meta_element_set_no": 999,
        "meta_rev_at_epoch": 443,
        "meta_bstar": -0.017110893,
        "meta_mean_motion_dot": -0.00942128,
        "meta_mean_motion_ddot": 0,
        "tle_line1": "1 66477U 25262X   25339.25002315 -.00942128  00000+0 -17111-1 0  9996",
        "tle_line2": "2 66477  42.9999 114.8231 0000919 268.4942  23.9962 15.51203458  4434"
      },
      "geometry": {
        "type": "Point",
        "coordinates": [
          -55.246383298301225,
          -12.032837273182249
        ]
      }
    },
    {
      "type": "Feature",
      "properties": {
        "norad_id": 66478,
        "name": "STARLINK-35283",
        "group": "last-30-days",
        "lat": -13.31852503693505,
        "lon": -53.7581995504081,
        "alt_km": 417.45692613707524,
        "timestamp": "2025-12-05T19:30:24.350117+00:00",
        "meta_object_name": "STARLINK-35283",
        "meta_object_id": "2025-262Y",
        "meta_epoch": "2025-12-05T06:00:02.000160",
        "meta_mean_motion": 15.5120048,
        "meta_eccentricity": 0.00010835,
        "meta_inclination": 43,
        "meta_ra_of_asc_node": 114.8176,
        "meta_arg_of_pericenter": 262.6656,
        "meta_mean_anomaly": 31.7375,
        "meta_ephemeris_type": 0,
        "meta_classification_type": "U",
        "meta_norad_cat_id": 66478,
        "meta_element_set_no": 999,
        "meta_rev_at_epoch": 443,
        "meta_bstar": -0.016532304,
        "meta_mean_motion_dot": -0.009127,
        "meta_mean_motion_ddot": 0,
        "tle_line1": "1 66478U 25262Y   25339.25002315 -.00912700  00000+0 -16532-1 0  9996",
        "tle_line2": "2 66478  43.0000 114.8176 0001083 262.6656  31.7375 15.51200480  4436"
      },
      "geometry": {
        "type": "Point",
        "coordinates": [
          -53.7581995504081,
          -13.31852503693505
        ]
      }
    },
    {
      "type": "Feature",
      "properties": {
        "norad_id": 66479,
        "name": "STARLINK-35581",
        "group": "last-30-days",
        "lat": -10.75884573243376,
        "lon": -56.69943149473736,
        "alt_km": 417.5156713413553,
        "timestamp": "2025-12-05T19:30:24.350127+00:00",
        "meta_object_name": "STARLINK-35581",
        "meta_object_id": "2025-262Z",
        "meta_epoch": "2025-12-05T06:00:02.000160",
        "meta_mean_motion": 15.51202451,
        "meta_eccentricity": 9.418e-05,
        "meta_inclination": 42.9999,
        "meta_ra_of_asc_node": 114.8274,
        "meta_arg_of_pericenter": 277.9282,
        "meta_mean_anomaly": 12.6422,
        "meta_ephemeris_type": 0,
        "meta_classification_type": "U",
        "meta_norad_cat_id": 66479,
        "meta_element_set_no": 999,
        "meta_rev_at_epoch": 443,
        "meta_bstar": -0.016991445,
        "meta_mean_motion_dot": -0.00936051,
        "meta_mean_motion_ddot": 0,
        "tle_line1": "1 66479U 25262Z   25339.25002315 -.00936051  00000+0 -16991-1 0  9991",
        "tle_line2": "2 66479  42.9999 114.8274 0000941 277.9282  12.6422 15.51202451  4438"
      },
      "geometry": {
        "type": "Point",
        "coordinates": [
          -56.69943149473736,
          -10.75884573243376
        ]
      }
    },
    {
      "type": "Feature",
      "properties": {
        "norad_id": 66480,
        "name": "STARLINK-35670",
        "group": "last-30-days",
        "lat": -14.575050898835482,
        "lon": -52.277944606790804,
        "alt_km": 417.59571322061856,
        "timestamp": "2025-12-05T19:30:24.350162+00:00",
        "meta_object_name": "STARLINK-35670",
        "meta_object_id": "2025-262AA",
        "meta_epoch": "2025-12-05T06:00:02.000160",
        "meta_mean_motion": 15.51198399,
        "meta_eccentricity": 0.00011493,
        "meta_inclination": 43,
        "meta_ra_of_asc_node": 114.8124,
        "meta_arg_of_pericenter": 265.5617,
        "meta_mean_anomaly": 30.7618,
        "meta_ephemeris_type": 0,
        "meta_classification_type": "U",
        "meta_norad_cat_id": 66480,
        "meta_element_set_no": 999,
        "meta_rev_at_epoch": 443,
        "meta_bstar": -0.016564825,
        "meta_mean_motion_dot": -0.00914305,
        "meta_mean_motion_ddot": 0,
        "tle_line1": "1 66480U 25262AA  25339.25002315 -.00914305  00000+0 -16565-1 0  9998",
        "tle_line2": "2 66480  43.0000 114.8124 0001149 265.5617  30.7618 15.51198399  4438"
      },
      "geometry": {
        "type": "Point",
        "coordinates": [
          -52.277944606790804,
          -14.575050898835482
        ]
      }
    }
  ]
}